start=new Date('2021-09-24T00:00:00.000Z').valueOf();
sats=[{"NORAD_CAT_ID":"48881","REF_FRAME":"TEME","ELEMENT_SET_NO":"999","DECAY_DATE":null,"COUNTRY_CODE":"US","PERIOD":"94.987","RA_OF_ASC_NODE":"34.8549","MEAN_ANOMALY":"171.1453","EPHEMERIS_TYPE":"0","BSTAR":"-0.00152680000000","APOAPSIS":"520.217","REV_AT_EPOCH":"359","INCLINATION":"97.5218","OBJECT_TYPE":"PAYLOAD","GP_ID":"185351053","MEAN_MOTION_DDOT":"0.0000000000000","OBJECT_ID":"2021-059C","MEAN_MOTION_DOT":"-0.00029246","RCS_SIZE":"LARGE","FILE":"3125337","EPOCH":"2021-09-23T22:00:01.999584","CLASSIFICATION_TYPE":"U","MEAN_MOTION":"15.15992430","SEMIMAJOR_AXIS":"6896.104","PERIAPSIS":"515.721","LAUNCH_DATE":"2021-06-30","CENTER_NAME":"EARTH","SITE":"AFETR","ECCENTRICITY":"0.00032600","TLE_LINE2":"2 48881  97.5218  34.8549 0003260  78.1222 171.1453 15.15992430  3597","ARG_OF_PERICENTER":"78.1222","OBJECT_NAME":"STARLINK-3005","MEAN_ELEMENT_THEORY":"SGP4","TIME_SYSTEM":"UTC","TLE_LINE1":"1 48881U 21059C   21266.91668981 -.00029246  00000-0 -15268-2 0  9990"},{"FILE":"3125337","EPOCH":"2021-09-23T22:00:01.999584","CLASSIFICATION_TYPE":"U","MEAN_MOTION":"15.79279353","SEMIMAJOR_AXIS":"6710.618","LAUNCH_DATE":"2021-09-14","PERIAPSIS":"325.610","CENTER_NAME":"EARTH","SITE":"AFWTR","ECCENTRICITY":"0.00102430","TLE_LINE2":"2 49131  70.0001  99.4472 0010243 197.2518 317.9336 15.79279353  1864","ARG_OF_PERICENTER":"197.2518","OBJECT_NAME":"STARLINK-3096","MEAN_ELEMENT_THEORY":"SGP4","TIME_SYSTEM":"UTC","TLE_LINE1":"1 49131U 21082B   21266.91668981 -.01071193  00000-0 -66851-2 0  9998","NORAD_CAT_ID":"49131","REF_FRAME":"TEME","ELEMENT_SET_NO":"999","DECAY_DATE":null,"COUNTRY_CODE":"US","PERIOD":"91.181","RA_OF_ASC_NODE":"99.4472","MEAN_ANOMALY":"317.9336","EPHEMERIS_TYPE":"0","BSTAR":"-0.00668510000000","APOAPSIS":"339.357","REV_AT_EPOCH":"186","INCLINATION":"70.0001","OBJECT_TYPE":"PAYLOAD","GP_ID":"185351186","MEAN_MOTION_DDOT":"0.0000000000000","OBJECT_ID":"2021-082B","MEAN_MOTION_DOT":"-0.01071193","RCS_SIZE":null},{"MEAN_ELEMENT_THEORY":"SGP4","TIME_SYSTEM":"UTC","TLE_LINE1":"1 49132U 21082C   21266.91668981 -.01072274  00000-0 -67151-2 0  9994","SITE":"AFWTR","ECCENTRICITY":"0.00091840","TLE_LINE2":"2 49132  70.0001  99.4489 0009184 204.8758 308.8659 15.79232038  1862","OBJECT_NAME":"STARLINK-3090","ARG_OF_PERICENTER":"204.8758","MEAN_MOTION":"15.79232038","SEMIMAJOR_AXIS":"6710.752","PERIAPSIS":"326.454","LAUNCH_DATE":"2021-09-14","CENTER_NAME":"EARTH","FILE":"3125337","EPOCH":"2021-09-23T22:00:01.999584","CLASSIFICATION_TYPE":"U","GP_ID":"185350986","OBJECT_ID":"2021-082C","MEAN_MOTION_DDOT":"0.0000000000000","MEAN_MOTION_DOT":"-0.01072274","RCS_SIZE":null,"REV_AT_EPOCH":"186","INCLINATION":"70.0001","OBJECT_TYPE":"PAYLOAD","RA_OF_ASC_NODE":"99.4489","MEAN_ANOMALY":"308.8659","EPHEMERIS_TYPE":"0","BSTAR":"-0.00671510000000","APOAPSIS":"338.780","NORAD_CAT_ID":"49132","REF_FRAME":"TEME","DECAY_DATE":null,"ELEMENT_SET_NO":"999","COUNTRY_CODE":"US","PERIOD":"91.184"},{"APOAPSIS":"338.771","BSTAR":"-0.00667680000000","EPHEMERIS_TYPE":"0","MEAN_ANOMALY":"316.6466","RA_OF_ASC_NODE":"99.4455","PERIOD":"91.178","COUNTRY_CODE":"US","DECAY_DATE":null,"ELEMENT_SET_NO":"999","REF_FRAME":"TEME","NORAD_CAT_ID":"49133","RCS_SIZE":null,"MEAN_MOTION_DOT":"-0.01071360","MEAN_MOTION_DDOT":"0.0000000000000","OBJECT_ID":"2021-082D","GP_ID":"185351721","OBJECT_TYPE":"PAYLOAD","INCLINATION":"70.0001","REV_AT_EPOCH":"186","CENTER_NAME":"EARTH","PERIAPSIS":"325.926","LAUNCH_DATE":"2021-09-14","SEMIMAJOR_AXIS":"6710.484","MEAN_MOTION":"15.79326835","CLASSIFICATION_TYPE":"U","EPOCH":"2021-09-23T22:00:01.999584","FILE":"3125337","TLE_LINE1":"1 49133U 21082D   21266.91668981 -.01071360  00000-0 -66768-2 0  9993","TIME_SYSTEM":"UTC","MEAN_ELEMENT_THEORY":"SGP4","OBJECT_NAME":"STARLINK-3077","ARG_OF_PERICENTER":"199.9916","TLE_LINE2":"2 49133  70.0001  99.4455 0009571 199.9916 316.6466 15.79326835  1868","ECCENTRICITY":"0.00095710","SITE":"AFWTR"},{"TIME_SYSTEM":"UTC","MEAN_ELEMENT_THEORY":"SGP4","TLE_LINE1":"1 49134U 21082E   21266.91668981 -.01071971  00000-0 -66250-2 0  9998","ECCENTRICITY":"0.00093720","SITE":"AFWTR","OBJECT_NAME":"STARLINK-3078","ARG_OF_PERICENTER":"202.8858","TLE_LINE2":"2 49134  70.0001  99.4386 0009372 202.8858 319.5404 15.79515619  1864","SEMIMAJOR_AXIS":"6709.949","MEAN_MOTION":"15.79515619","CENTER_NAME":"EARTH","PERIAPSIS":"325.526","LAUNCH_DATE":"2021-09-14","CLASSIFICATION_TYPE":"U","EPOCH":"2021-09-23T22:00:01.999584","FILE":"3125337","MEAN_MOTION_DDOT":"0.0000000000000","OBJECT_ID":"2021-082E","GP_ID":"185351408","RCS_SIZE":null,"MEAN_MOTION_DOT":"-0.01071971","REV_AT_EPOCH":"186","OBJECT_TYPE":"PAYLOAD","INCLINATION":"70.0001","MEAN_ANOMALY":"319.5404","RA_OF_ASC_NODE":"99.4386","APOAPSIS":"338.103","BSTAR":"-0.00662500000000","EPHEMERIS_TYPE":"0","COUNTRY_CODE":"US","ELEMENT_SET_NO":"999","DECAY_DATE":null,"REF_FRAME":"TEME","NORAD_CAT_ID":"49134","PERIOD":"91.167"},{"EPOCH":"2021-09-23T22:00:01.999584","CLASSIFICATION_TYPE":"U","FILE":"3125337","SEMIMAJOR_AXIS":"6710.218","MEAN_MOTION":"15.79420825","CENTER_NAME":"EARTH","PERIAPSIS":"325.421","LAUNCH_DATE":"2021-09-14","ECCENTRICITY":"0.00099270","SITE":"AFWTR","OBJECT_NAME":"STARLINK-3073","ARG_OF_PERICENTER":"198.3853","TLE_LINE2":"2 49135  70.0001  99.4421 0009927 198.3853 321.1547 15.79420825  1866","MEAN_ELEMENT_THEORY":"SGP4","TIME_SYSTEM":"UTC","TLE_LINE1":"1 49135U 21082F   21266.91668981 -.01071206  00000-0 -66444-2 0  9995","ELEMENT_SET_NO":"999","DECAY_DATE":null,"COUNTRY_CODE":"US","NORAD_CAT_ID":"49135","REF_FRAME":"TEME","PERIOD":"91.173","MEAN_ANOMALY":"321.1547","RA_OF_ASC_NODE":"99.4421","APOAPSIS":"338.744","EPHEMERIS_TYPE":"0","BSTAR":"-0.00664440000000","REV_AT_EPOCH":"186","OBJECT_TYPE":"PAYLOAD","INCLINATION":"70.0001","MEAN_MOTION_DDOT":"0.0000000000000","OBJECT_ID":"2021-082F","GP_ID":"185351511","MEAN_MOTION_DOT":"-0.01071206","RCS_SIZE":null},{"FILE":"3125337","EPOCH":"2021-09-23T22:00:01.999584","CLASSIFICATION_TYPE":"U","MEAN_MOTION":"15.79374012","SEMIMAJOR_AXIS":"6710.350","PERIAPSIS":"325.935","LAUNCH_DATE":"2021-09-14","CENTER_NAME":"EARTH","SITE":"AFWTR","ECCENTRICITY":"0.00093590","TLE_LINE2":"2 49136  70.0001  99.4437 0009359 203.7903 314.3046 15.79374012  1864","OBJECT_NAME":"STARLINK-3084","ARG_OF_PERICENTER":"203.7903","MEAN_ELEMENT_THEORY":"SGP4","TIME_SYSTEM":"UTC","TLE_LINE1":"1 49136U 21082G   21266.91668981 -.01072010  00000-0 -66685-2 0  9997","NORAD_CAT_ID":"49136","REF_FRAME":"TEME","ELEMENT_SET_NO":"999","DECAY_DATE":null,"COUNTRY_CODE":"US","PERIOD":"91.175","RA_OF_ASC_NODE":"99.4437","MEAN_ANOMALY":"314.3046","EPHEMERIS_TYPE":"0","BSTAR":"-0.00666850000000","APOAPSIS":"338.495","REV_AT_EPOCH":"186","INCLINATION":"70.0001","OBJECT_TYPE":"PAYLOAD","GP_ID":"185351310","OBJECT_ID":"2021-082G","MEAN_MOTION_DDOT":"0.0000000000000","MEAN_MOTION_DOT":"-0.01072010","RCS_SIZE":null},{"ELEMENT_SET_NO":"999","DECAY_DATE":null,"COUNTRY_CODE":"US","NORAD_CAT_ID":"49137","REF_FRAME":"TEME","PERIOD":"91.170","MEAN_ANOMALY":"320.5338","RA_OF_ASC_NODE":"99.4404","APOAPSIS":"338.440","EPHEMERIS_TYPE":"0","BSTAR":"-0.00663270000000","REV_AT_EPOCH":"186","OBJECT_TYPE":"PAYLOAD","INCLINATION":"70.0001","OBJECT_ID":"2021-082H","MEAN_MOTION_DDOT":"0.0000000000000","GP_ID":"185351616","MEAN_MOTION_DOT":"-0.01071405","RCS_SIZE":null,"EPOCH":"2021-09-23T22:00:01.999584","CLASSIFICATION_TYPE":"U","FILE":"3125337","SEMIMAJOR_AXIS":"6710.079","MEAN_MOTION":"15.79469857","CENTER_NAME":"EARTH","LAUNCH_DATE":"2021-09-14","PERIAPSIS":"325.448","ECCENTRICITY":"0.00096810","SITE":"AFWTR","ARG_OF_PERICENTER":"200.4252","OBJECT_NAME":"STARLINK-3055","TLE_LINE2":"2 49137  70.0001  99.4404 0009681 200.4252 320.5338 15.79469857  1863","TIME_SYSTEM":"UTC","MEAN_ELEMENT_THEORY":"SGP4","TLE_LINE1":"1 49137U 21082H   21266.91668981 -.01071405  00000-0 -66327-2 0  9998"},{"SEMIMAJOR_AXIS":"6709.675","MEAN_MOTION":"15.79612555","CENTER_NAME":"EARTH","LAUNCH_DATE":"2021-09-14","PERIAPSIS":"324.821","CLASSIFICATION_TYPE":"U","EPOCH":"2021-09-23T22:00:01.999584","FILE":"3125337","MEAN_ELEMENT_THEORY":"SGP4","TIME_SYSTEM":"UTC","TLE_LINE1":"1 49138U 21082J   21266.91668981 -.01071412  00000-0 -65870-2 0  9999","ECCENTRICITY":"0.00100140","SITE":"AFWTR","OBJECT_NAME":"STARLINK-3058","ARG_OF_PERICENTER":"197.5596","TLE_LINE2":"2 49138  70.0001  99.4352 0010014 197.5596 327.6941 15.79612555  1868","MEAN_ANOMALY":"327.6941","RA_OF_ASC_NODE":"99.4352","APOAPSIS":"338.259","BSTAR":"-0.00658700000000","EPHEMERIS_TYPE":"0","COUNTRY_CODE":"US","ELEMENT_SET_NO":"999","DECAY_DATE":null,"REF_FRAME":"TEME","NORAD_CAT_ID":"49138","PERIOD":"91.162","MEAN_MOTION_DDOT":"0.0000000000000","OBJECT_ID":"2021-082J","GP_ID":"185351084","RCS_SIZE":null,"MEAN_MOTION_DOT":"-0.01071412","REV_AT_EPOCH":"186","OBJECT_TYPE":"PAYLOAD","INCLINATION":"70.0001"},{"MEAN_MOTION_DOT":"-0.01071249","RCS_SIZE":null,"GP_ID":"185351187","MEAN_MOTION_DDOT":"0.0000000000000","OBJECT_ID":"2021-082K","INCLINATION":"70.0001","OBJECT_TYPE":"PAYLOAD","REV_AT_EPOCH":"186","EPHEMERIS_TYPE":"0","BSTAR":"-0.00660020000000","APOAPSIS":"338.437","RA_OF_ASC_NODE":"99.4370","MEAN_ANOMALY":"327.0410","PERIOD":"91.164","NORAD_CAT_ID":"49139","REF_FRAME":"TEME","DECAY_DATE":null,"ELEMENT_SET_NO":"999","COUNTRY_CODE":"US","TLE_LINE1":"1 49139U 21082K   21266.91668981 -.01071249  00000-0 -66002-2 0  9996","TIME_SYSTEM":"UTC","MEAN_ELEMENT_THEORY":"SGP4","TLE_LINE2":"2 49139  70.0001  99.4370 0010073 196.8010 327.0410 15.79563744  1867","OBJECT_NAME":"STARLINK-3057","ARG_OF_PERICENTER":"196.8010","SITE":"AFWTR","ECCENTRICITY":"0.00100730","LAUNCH_DATE":"2021-09-14","PERIAPSIS":"324.919","CENTER_NAME":"EARTH","MEAN_MOTION":"15.79563744","SEMIMAJOR_AXIS":"6709.813","FILE":"3125337","EPOCH":"2021-09-23T22:00:01.999584","CLASSIFICATION_TYPE":"U"}];
